IDEFIX & ARIANE 42P R/B 
1 27422U 02021B   26046.26118473  .00000335  00000+0  14399-3 0  9991
2 27422  98.5847 345.1389 0010630 252.8819 107.1200 14.31009985240814
AQUA                    
1 27424U 02022A   26046.32350726  .00001284  00000+0  26636-3 0  9991
2 27424  98.4133  13.2885 0001282  48.8287 115.4196 14.61921344265461
CZ-4B R/B               
1 27432U 02024C   26046.14729164  .00000039  00000+0  42694-4 0  9998
2 27432  98.8891  99.6620 0051200  87.2866 294.6683 14.14543456226050
MIDORI II (ADEOS-II)    
1 27597U 02056A   26045.84199657  .00000300  00000+0  13578-3 0  9998
2 27597  98.7728   4.1678 0002171  73.7944 286.3477 14.29267661207037
H-2A R/B                
1 27601U 02056E   26046.31819183  .00000353  00000+0  13864-3 0  9996
2 27601  98.3161   7.5412 0069219 227.6639 258.4287 14.33745226210902
CZ-4B R/B               
1 28059U 03049C   26045.96507113  .00000445  00000+0  11384-3 0  9991
2 28059  98.6853  39.9829 0047171 301.9137  57.7475 14.54995218183295
CZ-2C R/B               
1 28222U 04012C   26046.13904061  .00045502  00000+0  52081-3 0  9999
2 28222  97.7292 109.3383 0015300  37.6191 322.6132 15.61870521200756
SL-16 R/B               
1 28353U 04021B   26046.04114306  .00000331  00000+0  19699-3 0  9998
2 28353  70.9990 280.0244 0003171  65.2605 294.8847 14.14593362119633
CZ-4B R/B               
1 28415U 04035C   26046.06680311  .00006708  00000+0  23955-3 0  9992
2 28415  97.3538  80.5844 0033697  51.3004 309.1241 15.28635351176459
CZ-2C R/B               
1 28480U 04046B   26046.25781594  .00000134  00000+0  65395-4 0  9994
2 28480  98.1995 322.6356 0138508 220.8662 138.2070 14.26984250105304
ARIANE 5 R/B            
1 28499U 04049H   26046.06393432  .00000835  00000+0  98217-4 0  9993
2 28499  98.2588 213.6801 0085348  64.8297 296.1738 14.85219913142432
CZ-2D R/B               
1 28738U 05024B   26045.98833712  .00031860  00000+0  42361-3 0  9993
2 28738  97.3612  60.3389 0007651 100.7880 259.4237 15.58101695136249
