CCSDS_OMM_VERS = 2.0
CREATION_DATE  = 
ORIGINATOR     = 

OBJECT_NAME    = IDEFIX & ARIANE 42P R/B
OBJECT_ID      = 2002-021B
CENTER_NAME    = EARTH
REF_FRAME      = TEME
TIME_SYSTEM    = UTC
MEAN_ELEMENT_THEORY = SGP/SGP4

EPOCH          = 2026-02-15T06:16:06.360672
MEAN_MOTION    = 14.31009985
ECCENTRICITY   = .00106304
INCLINATION    = 98.5847
RA_OF_ASC_NODE = 345.1389
ARG_OF_PERICENTER = 252.8819
MEAN_ANOMALY   = 107.1200

EPHEMERIS_TYPE = 0
CLASSIFICATION_TYPE = U
NORAD_CAT_ID   = 27422
ELEMENT_SET_NO = 999
REV_AT_EPOCH   = 24081
BSTAR          = .14399406E-3
MEAN_MOTION_DOT = .335E-5
MEAN_MOTION_DDOT = 0

CCSDS_OMM_VERS = 2.0
CREATION_DATE  = 
ORIGINATOR     = 

OBJECT_NAME    = AQUA
OBJECT_ID      = 2002-022A
CENTER_NAME    = EARTH
REF_FRAME      = TEME
TIME_SYSTEM    = UTC
MEAN_ELEMENT_THEORY = SGP/SGP4

EPOCH          = 2026-02-15T07:45:51.027264
MEAN_MOTION    = 14.61921344
ECCENTRICITY   = .00012825
INCLINATION    = 98.4133
RA_OF_ASC_NODE = 13.2885
ARG_OF_PERICENTER = 48.8287
MEAN_ANOMALY   = 115.4196

EPHEMERIS_TYPE = 0
CLASSIFICATION_TYPE = U
NORAD_CAT_ID   = 27424
ELEMENT_SET_NO = 999
REV_AT_EPOCH   = 26546
BSTAR          = .26635639E-3
MEAN_MOTION_DOT = .1284E-4
MEAN_MOTION_DDOT = 0

CCSDS_OMM_VERS = 2.0
CREATION_DATE  = 
ORIGINATOR     = 

OBJECT_NAME    = CZ-4B R/B
OBJECT_ID      = 2002-024C
CENTER_NAME    = EARTH
REF_FRAME      = TEME
TIME_SYSTEM    = UTC
MEAN_ELEMENT_THEORY = SGP/SGP4

EPOCH          = 2026-02-15T03:32:05.997696
MEAN_MOTION    = 14.14543456
ECCENTRICITY   = .00512004
INCLINATION    = 98.8891
RA_OF_ASC_NODE = 99.6620
ARG_OF_PERICENTER = 87.2866
MEAN_ANOMALY   = 294.6683

EPHEMERIS_TYPE = 0
CLASSIFICATION_TYPE = U
NORAD_CAT_ID   = 27432
ELEMENT_SET_NO = 999
REV_AT_EPOCH   = 22605
BSTAR          = .42694052E-4
MEAN_MOTION_DOT = .39E-6
MEAN_MOTION_DDOT = 0

CCSDS_OMM_VERS = 2.0
CREATION_DATE  = 
ORIGINATOR     = 

OBJECT_NAME    = MIDORI II (ADEOS-II)
OBJECT_ID      = 2002-056A
CENTER_NAME    = EARTH
REF_FRAME      = TEME
TIME_SYSTEM    = UTC
MEAN_ELEMENT_THEORY = SGP/SGP4

EPOCH          = 2026-02-14T20:12:28.503648
MEAN_MOTION    = 14.29267661
ECCENTRICITY   = .00021718
INCLINATION    = 98.7728
RA_OF_ASC_NODE = 4.1678
ARG_OF_PERICENTER = 73.7944
MEAN_ANOMALY   = 286.3477

EPHEMERIS_TYPE = 0
CLASSIFICATION_TYPE = U
NORAD_CAT_ID   = 27597
ELEMENT_SET_NO = 999
REV_AT_EPOCH   = 20703
BSTAR          = .13578133E-3
MEAN_MOTION_DOT = .3E-5
MEAN_MOTION_DDOT = 0

CCSDS_OMM_VERS = 2.0
CREATION_DATE  = 
ORIGINATOR     = 

OBJECT_NAME    = H-2A R/B
OBJECT_ID      = 2002-056E
CENTER_NAME    = EARTH
REF_FRAME      = TEME
TIME_SYSTEM    = UTC
MEAN_ELEMENT_THEORY = SGP/SGP4

EPOCH          = 2026-02-15T07:38:11.774112
MEAN_MOTION    = 14.33745226
ECCENTRICITY   = .00692199
INCLINATION    = 98.3161
RA_OF_ASC_NODE = 7.5412
ARG_OF_PERICENTER = 227.6639
MEAN_ANOMALY   = 258.4287

EPHEMERIS_TYPE = 0
CLASSIFICATION_TYPE = U
NORAD_CAT_ID   = 27601
ELEMENT_SET_NO = 999
REV_AT_EPOCH   = 21090
BSTAR          = .13863826E-3
MEAN_MOTION_DOT = .353E-5
MEAN_MOTION_DDOT = 0

CCSDS_OMM_VERS = 2.0
CREATION_DATE  = 
ORIGINATOR     = 

OBJECT_NAME    = CZ-4B R/B
OBJECT_ID      = 2003-049C
CENTER_NAME    = EARTH
REF_FRAME      = TEME
TIME_SYSTEM    = UTC
MEAN_ELEMENT_THEORY = SGP/SGP4

EPOCH          = 2026-02-14T23:09:42.145632
MEAN_MOTION    = 14.54995218
ECCENTRICITY   = .00471716
INCLINATION    = 98.6853
RA_OF_ASC_NODE = 39.9829
ARG_OF_PERICENTER = 301.9137
MEAN_ANOMALY   = 57.7475

EPHEMERIS_TYPE = 0
CLASSIFICATION_TYPE = U
NORAD_CAT_ID   = 28059
ELEMENT_SET_NO = 999
REV_AT_EPOCH   = 18329
BSTAR          = .11384321E-3
MEAN_MOTION_DOT = .445E-5
MEAN_MOTION_DDOT = 0

CCSDS_OMM_VERS = 2.0
CREATION_DATE  = 
ORIGINATOR     = 

OBJECT_NAME    = CZ-2C R/B
OBJECT_ID      = 2004-012C
CENTER_NAME    = EARTH
REF_FRAME      = TEME
TIME_SYSTEM    = UTC
MEAN_ELEMENT_THEORY = SGP/SGP4

EPOCH          = 2026-02-15T03:20:13.108704
MEAN_MOTION    = 15.61870521
ECCENTRICITY   = .00153008
INCLINATION    = 97.7292
RA_OF_ASC_NODE = 109.3383
ARG_OF_PERICENTER = 37.6191
MEAN_ANOMALY   = 322.6132

EPHEMERIS_TYPE = 0
CLASSIFICATION_TYPE = U
NORAD_CAT_ID   = 28222
ELEMENT_SET_NO = 999
REV_AT_EPOCH   = 20075
BSTAR          = .52080946E-3
MEAN_MOTION_DOT = .45502E-3
MEAN_MOTION_DDOT = 0

CCSDS_OMM_VERS = 2.0
CREATION_DATE  = 
ORIGINATOR     = 

OBJECT_NAME    = SL-16 R/B
OBJECT_ID      = 2004-021B
CENTER_NAME    = EARTH
REF_FRAME      = TEME
TIME_SYSTEM    = UTC
MEAN_ELEMENT_THEORY = SGP/SGP4

EPOCH          = 2026-02-15T00:59:14.760384
MEAN_MOTION    = 14.14593362
ECCENTRICITY   = .00031711
INCLINATION    = 70.9990
RA_OF_ASC_NODE = 280.0244
ARG_OF_PERICENTER = 65.2605
MEAN_ANOMALY   = 294.8847

EPHEMERIS_TYPE = 0
CLASSIFICATION_TYPE = U
NORAD_CAT_ID   = 28353
ELEMENT_SET_NO = 999
REV_AT_EPOCH   = 11963
BSTAR          = .19698591E-3
MEAN_MOTION_DOT = .331E-5
MEAN_MOTION_DDOT = 0

CCSDS_OMM_VERS = 2.0
CREATION_DATE  = 
ORIGINATOR     = 

OBJECT_NAME    = CZ-4B R/B
OBJECT_ID      = 2004-035C
CENTER_NAME    = EARTH
REF_FRAME      = TEME
TIME_SYSTEM    = UTC
MEAN_ELEMENT_THEORY = SGP/SGP4

EPOCH          = 2026-02-15T01:36:11.788704
MEAN_MOTION    = 15.28635351
ECCENTRICITY   = .00336972
INCLINATION    = 97.3538
RA_OF_ASC_NODE = 80.5844
ARG_OF_PERICENTER = 51.3004
MEAN_ANOMALY   = 309.1241

EPHEMERIS_TYPE = 0
CLASSIFICATION_TYPE = U
NORAD_CAT_ID   = 28415
ELEMENT_SET_NO = 999
REV_AT_EPOCH   = 17645
BSTAR          = .23954701E-3
MEAN_MOTION_DOT = .6708E-4
MEAN_MOTION_DDOT = 0

CCSDS_OMM_VERS = 2.0
CREATION_DATE  = 
ORIGINATOR     = 

OBJECT_NAME    = CZ-2C R/B
OBJECT_ID      = 2004-046B
CENTER_NAME    = EARTH
REF_FRAME      = TEME
TIME_SYSTEM    = UTC
MEAN_ELEMENT_THEORY = SGP/SGP4

EPOCH          = 2026-02-15T06:11:15.297216
MEAN_MOTION    = 14.26984250
ECCENTRICITY   = .01385084
INCLINATION    = 98.1995
RA_OF_ASC_NODE = 322.6356
ARG_OF_PERICENTER = 220.8662
MEAN_ANOMALY   = 138.2070

EPHEMERIS_TYPE = 0
CLASSIFICATION_TYPE = U
NORAD_CAT_ID   = 28480
ELEMENT_SET_NO = 999
REV_AT_EPOCH   = 10530
BSTAR          = .65395187E-4
MEAN_MOTION_DOT = .134E-5
MEAN_MOTION_DDOT = 0

CCSDS_OMM_VERS = 2.0
CREATION_DATE  = 
ORIGINATOR     = 

OBJECT_NAME    = ARIANE 5 R/B
OBJECT_ID      = 2004-049H
CENTER_NAME    = EARTH
REF_FRAME      = TEME
TIME_SYSTEM    = UTC
MEAN_ELEMENT_THEORY = SGP/SGP4

EPOCH          = 2026-02-15T01:32:03.925248
MEAN_MOTION    = 14.85219913
ECCENTRICITY   = .00853485
INCLINATION    = 98.2588
RA_OF_ASC_NODE = 213.6801
ARG_OF_PERICENTER = 64.8297
MEAN_ANOMALY   = 296.1738

EPHEMERIS_TYPE = 0
CLASSIFICATION_TYPE = U
NORAD_CAT_ID   = 28499
ELEMENT_SET_NO = 999
REV_AT_EPOCH   = 14243
BSTAR          = .98216685E-4
MEAN_MOTION_DOT = .835E-5
MEAN_MOTION_DDOT = 0

CCSDS_OMM_VERS = 2.0
CREATION_DATE  = 
ORIGINATOR     = 

OBJECT_NAME    = CZ-2D R/B
OBJECT_ID      = 2005-024B
CENTER_NAME    = EARTH
REF_FRAME      = TEME
TIME_SYSTEM    = UTC
MEAN_ELEMENT_THEORY = SGP/SGP4

EPOCH          = 2026-02-14T23:43:12.327168
MEAN_MOTION    = 15.58101695
ECCENTRICITY   = .0007651
INCLINATION    = 97.3612
RA_OF_ASC_NODE = 60.3389
ARG_OF_PERICENTER = 100.7880
MEAN_ANOMALY   = 259.4237

EPHEMERIS_TYPE = 0
CLASSIFICATION_TYPE = U
NORAD_CAT_ID   = 28738
ELEMENT_SET_NO = 999
REV_AT_EPOCH   = 13624
BSTAR          = .42361E-3
MEAN_MOTION_DOT = .3186E-3
MEAN_MOTION_DDOT = 0

